[{"OBJECT_NAME":"STARLINK-34315","OBJECT_ID":"2025-120L","EPOCH":"2026-03-09T10:18:42.708672","MEAN_MOTION":15.30194155,"ECCENTRICITY":0.0001111,"INCLINATION":53.1577,"RA_OF_ASC_NODE":118.0886,"ARG_OF_PERICENTER":78.6685,"MEAN_ANOMALY":281.444,"EPHEMERIS_TYPE":0,"CLASSIFICATION_TYPE":"U","NORAD_CAT_ID":64266,"ELEMENT_SET_NO":999,"REV_AT_EPOCH":4381,"BSTAR":0.0009528304,"MEAN_MOTION_DOT":0.00027962,"MEAN_MOTION_DDOT":0},{"OBJECT_NAME":"COSMOS 1328","OBJECT_ID":"1981-117A","EPOCH":"2026-03-09T17:51:53.113536","MEAN_MOTION":15.33902077,"ECCENTRICITY":0.00108717,"INCLINATION":82.4939,"RA_OF_ASC_NODE":350.453,"ARG_OF_PERICENTER":167.9725,"MEAN_ANOMALY":192.1779,"EPHEMERIS_TYPE":0,"CLASSIFICATION_TYPE":"U","NORAD_CAT_ID":12987,"ELEMENT_SET_NO":999,"REV_AT_EPOCH":41406,"BSTAR":0.00040501644,"MEAN_MOTION_DOT":0.00013342,"MEAN_MOTION_DDOT":0}]
